start=new Date('2023-05-03T00:00:00.000Z').valueOf();
sats=[{"MEAN_MOTION_DOT":"0.00017912","RCS_SIZE":"LARGE","MEAN_MOTION":"15.06417239","OBJECT_ID":"2021-036C","MEAN_MOTION_DDOT":"0.0000000000000","OBJECT_NAME":"STARLINK-2543","NORAD_CAT_ID":"48278","CLASSIFICATION_TYPE":"U","REF_FRAME":"TEME","MEAN_ELEMENT_THEORY":"SGP4","BSTAR":"0.00121780000000","MEAN_ANOMALY":"269.9979","DECAY_DATE":null,"LAUNCH_DATE":"2021-04-29","PERIOD":"95.591","RA_OF_ASC_NODE":"23.6207","COUNTRY_CODE":"US","GP_ID":"231122665","ARG_OF_PERICENTER":"90.1135","TLE_LINE2":"2 48278  53.0564  23.6207 0001093  90.1135 269.9979 15.06417239112054","SITE":"AFETR","EPHEMERIS_TYPE":"0","ECCENTRICITY":"0.00010930","OBJECT_TYPE":"PAYLOAD","APOAPSIS":"547.918","EPOCH":"2023-05-02T20:48:16.412832","PERIAPSIS":"546.404","INCLINATION":"53.0564","REV_AT_EPOCH":"11205","ELEMENT_SET_NO":"999","FILE":"3899277","TLE_LINE1":"1 48278U 21036C   23122.86685663  .00017912  00000-0  12178-2 0  9990","TIME_SYSTEM":"UTC","SEMIMAJOR_AXIS":"6925.296","CENTER_NAME":"EARTH"},{"CENTER_NAME":"EARTH","SEMIMAJOR_AXIS":"6925.346","TIME_SYSTEM":"UTC","FILE":"3899068","ELEMENT_SET_NO":"999","INCLINATION":"53.0564","REV_AT_EPOCH":"11194","TLE_LINE1":"1 48279U 21036D   23122.12966390  .00021083  00000-0  14300-2 0  9992","EPOCH":"2023-05-02T03:06:42.960960","APOAPSIS":"548.141","PERIAPSIS":"546.280","OBJECT_TYPE":"PAYLOAD","ECCENTRICITY":"0.00013430","GP_ID":"231091465","ARG_OF_PERICENTER":"90.7659","TLE_LINE2":"2 48279  53.0564  26.8496 0001343  90.7659 269.3484 15.06400989111941","SITE":"AFETR","EPHEMERIS_TYPE":"0","BSTAR":"0.00143000000000","MEAN_ELEMENT_THEORY":"SGP4","REF_FRAME":"TEME","NORAD_CAT_ID":"48279","CLASSIFICATION_TYPE":"U","COUNTRY_CODE":"US","DECAY_DATE":null,"LAUNCH_DATE":"2021-04-29","PERIOD":"95.592","RA_OF_ASC_NODE":"26.8496","MEAN_ANOMALY":"269.3484","OBJECT_ID":"2021-036D","MEAN_MOTION":"15.06400989","OBJECT_NAME":"STARLINK-2580","MEAN_MOTION_DDOT":"0.0000000000000","RCS_SIZE":"LARGE","MEAN_MOTION_DOT":"0.00021083"},{"OBJECT_ID":"2021-036E","MEAN_MOTION":"15.06393749","OBJECT_NAME":"STARLINK-2565","MEAN_MOTION_DDOT":"0.0000000000000","MEAN_MOTION_DOT":"0.00000658","RCS_SIZE":"LARGE","GP_ID":"231121664","ARG_OF_PERICENTER":"78.6154","EPHEMERIS_TYPE":"0","TLE_LINE2":"2 48280  53.0526  94.4954 0001408  78.6154 281.4993 15.06393749111044","SITE":"AFETR","BSTAR":"0.00006308500000","MEAN_ELEMENT_THEORY":"SGP4","REF_FRAME":"TEME","CLASSIFICATION_TYPE":"U","NORAD_CAT_ID":"48280","COUNTRY_CODE":"US","RA_OF_ASC_NODE":"94.4954","DECAY_DATE":null,"LAUNCH_DATE":"2021-04-29","PERIOD":"95.593","MEAN_ANOMALY":"281.4993","EPOCH":"2023-05-02T15:41:44.343744","APOAPSIS":"548.208","PERIAPSIS":"546.258","OBJECT_TYPE":"PAYLOAD","ECCENTRICITY":"0.00014080","CENTER_NAME":"EARTH","SEMIMAJOR_AXIS":"6925.368","TIME_SYSTEM":"UTC","FILE":"3899277","ELEMENT_SET_NO":"999","REV_AT_EPOCH":"11104","INCLINATION":"53.0526","TLE_LINE1":"1 48280U 21036E   23122.65398546  .00000658  00000-0  63085-4 0  9995"},{"SITE":"AFETR","TLE_LINE2":"2 48281  53.0523  73.5431 0001121 103.8044 256.3070 15.06414125111354","EPHEMERIS_TYPE":"0","GP_ID":"231121914","ARG_OF_PERICENTER":"103.8044","DECAY_DATE":null,"LAUNCH_DATE":"2021-04-29","RA_OF_ASC_NODE":"73.5431","PERIOD":"95.591","MEAN_ANOMALY":"256.3070","COUNTRY_CODE":"US","NORAD_CAT_ID":"48281","CLASSIFICATION_TYPE":"U","BSTAR":"0.00056191000000","MEAN_ELEMENT_THEORY":"SGP4","REF_FRAME":"TEME","MEAN_MOTION_DDOT":"0.0000000000000","OBJECT_NAME":"STARLINK-2520","OBJECT_ID":"2021-036F","MEAN_MOTION":"15.06414125","MEAN_MOTION_DOT":"0.00008101","RCS_SIZE":"LARGE","TIME_SYSTEM":"UTC","CENTER_NAME":"EARTH","SEMIMAJOR_AXIS":"6925.305","TLE_LINE1":"1 48281U 21036F   23122.86591860  .00008101  00000-0  56191-3 0  9993","ELEMENT_SET_NO":"999","REV_AT_EPOCH":"11135","INCLINATION":"53.0523","FILE":"3899277","PERIAPSIS":"546.394","APOAPSIS":"547.947","EPOCH":"2023-05-02T20:46:55.367040","ECCENTRICITY":"0.00011210","OBJECT_TYPE":"PAYLOAD"},{"COUNTRY_CODE":"US","PERIOD":"95.592","DECAY_DATE":null,"LAUNCH_DATE":"2021-04-29","RA_OF_ASC_NODE":"78.4391","MEAN_ANOMALY":"261.9424","MEAN_ELEMENT_THEORY":"SGP4","BSTAR":"0.00095225000000","REF_FRAME":"TEME","CLASSIFICATION_TYPE":"U","NORAD_CAT_ID":"48282","SITE":"AFETR","TLE_LINE2":"2 48282  53.0535  78.4391 0001036  98.1683 261.9424 15.06405127111297","EPHEMERIS_TYPE":"0","ARG_OF_PERICENTER":"98.1683","GP_ID":"231123166","MEAN_MOTION_DOT":"0.00013933","RCS_SIZE":"LARGE","OBJECT_NAME":"STARLINK-2558","MEAN_MOTION_DDOT":"0.0000000000000","OBJECT_ID":"2021-036G","MEAN_MOTION":"15.06405127","TLE_LINE1":"1 48282U 21036G   23122.88942057  .00013933  00000-0  95225-3 0  9994","FILE":"3899277","ELEMENT_SET_NO":"999","INCLINATION":"53.0535","REV_AT_EPOCH":"11129","CENTER_NAME":"EARTH","SEMIMAJOR_AXIS":"6925.333","TIME_SYSTEM":"UTC","OBJECT_TYPE":"PAYLOAD","ECCENTRICITY":"0.00010360","PERIAPSIS":"546.480","EPOCH":"2023-05-02T21:20:45.937248","APOAPSIS":"547.915"},{"RCS_SIZE":"LARGE","MEAN_MOTION_DOT":"0.00010052","MEAN_MOTION_DDOT":"0.0000000000000","OBJECT_NAME":"STARLINK-2516","OBJECT_ID":"2021-036H","MEAN_MOTION":"15.06409030","DECAY_DATE":null,"LAUNCH_DATE":"2021-04-29","RA_OF_ASC_NODE":"78.4559","PERIOD":"95.592","MEAN_ANOMALY":"280.3521","COUNTRY_CODE":"US","CLASSIFICATION_TYPE":"U","NORAD_CAT_ID":"48283","MEAN_ELEMENT_THEORY":"SGP4","BSTAR":"0.00069259000000","REF_FRAME":"TEME","EPHEMERIS_TYPE":"0","TLE_LINE2":"2 48283  53.0533  78.4559 0001268  79.7610 280.3521 15.06409030111294","SITE":"AFETR","GP_ID":"231122909","ARG_OF_PERICENTER":"79.7610","ECCENTRICITY":"0.00012680","OBJECT_TYPE":"PAYLOAD","PERIAPSIS":"546.308","APOAPSIS":"548.064","EPOCH":"2023-05-02T21:15:27.673344","TLE_LINE1":"1 48283U 21036H   23122.88573696  .00010052  00000-0  69259-3 0  9991","ELEMENT_SET_NO":"999","INCLINATION":"53.0533","REV_AT_EPOCH":"11129","FILE":"3899277","TIME_SYSTEM":"UTC","CENTER_NAME":"EARTH","SEMIMAJOR_AXIS":"6925.321"},{"PERIAPSIS":"545.972","APOAPSIS":"548.486","EPOCH":"2023-05-02T14:47:59.404128","ECCENTRICITY":"0.00018150","OBJECT_TYPE":"PAYLOAD","TIME_SYSTEM":"UTC","CENTER_NAME":"EARTH","SEMIMAJOR_AXIS":"6925.364","TLE_LINE1":"1 48284U 21036J   23122.61665977  .00009371  00000-0  64724-3 0  9991","ELEMENT_SET_NO":"999","INCLINATION":"53.0529","REV_AT_EPOCH":"11124","FILE":"3899277","MEAN_MOTION_DDOT":"0.0000000000000","OBJECT_NAME":"STARLINK-2564","OBJECT_ID":"2021-036J","MEAN_MOTION":"15.06394937","MEAN_MOTION_DOT":"0.00009371","RCS_SIZE":"LARGE","TLE_LINE2":"2 48284  53.0529  79.6628 0001815  99.3362 260.7832 15.06394937111241","EPHEMERIS_TYPE":"0","SITE":"AFETR","GP_ID":"231122165","ARG_OF_PERICENTER":"99.3362","DECAY_DATE":null,"LAUNCH_DATE":"2021-04-29","RA_OF_ASC_NODE":"79.6628","PERIOD":"95.592","MEAN_ANOMALY":"260.7832","COUNTRY_CODE":"US","NORAD_CAT_ID":"48284","CLASSIFICATION_TYPE":"U","BSTAR":"0.00064724000000","MEAN_ELEMENT_THEORY":"SGP4","REF_FRAME":"TEME"},{"REF_FRAME":"TEME","BSTAR":"0.00106640000000","MEAN_ELEMENT_THEORY":"SGP4","CLASSIFICATION_TYPE":"U","NORAD_CAT_ID":"48285","COUNTRY_CODE":"US","MEAN_ANOMALY":"252.6055","LAUNCH_DATE":"2021-04-29","DECAY_DATE":null,"RA_OF_ASC_NODE":"78.4808","PERIOD":"95.591","ARG_OF_PERICENTER":"107.5084","GP_ID":"231122415","TLE_LINE2":"2 48285  53.0528  78.4808 0001374 107.5084 252.6055 15.06411980111280","EPHEMERIS_TYPE":"0","SITE":"AFETR","RCS_SIZE":"LARGE","MEAN_MOTION_DOT":"0.00015643","MEAN_MOTION":"15.06411980","OBJECT_ID":"2021-036K","OBJECT_NAME":"STARLINK-2548","MEAN_MOTION_DDOT":"0.0000000000000","FILE":"3899277","INCLINATION":"53.0528","REV_AT_EPOCH":"11128","ELEMENT_SET_NO":"999","TLE_LINE1":"1 48285U 21036K   23122.87741612  .00015643  00000-0  10664-2 0  9993","SEMIMAJOR_AXIS":"6925.312","CENTER_NAME":"EARTH","TIME_SYSTEM":"UTC","OBJECT_TYPE":"PAYLOAD","ECCENTRICITY":"0.00013740","EPOCH":"2023-05-02T21:03:28.752768","APOAPSIS":"548.128","PERIAPSIS":"546.225"},{"GP_ID":"231122666","ARG_OF_PERICENTER":"96.9838","TLE_LINE2":"2 48286  53.0547  79.6949 0001371  96.9838 263.1307 15.06412099111241","SITE":"AFETR","EPHEMERIS_TYPE":"0","NORAD_CAT_ID":"48286","CLASSIFICATION_TYPE":"U","REF_FRAME":"TEME","MEAN_ELEMENT_THEORY":"SGP4","BSTAR":"0.00123210000000","MEAN_ANOMALY":"263.1307","DECAY_DATE":null,"LAUNCH_DATE":"2021-04-29","RA_OF_ASC_NODE":"79.6949","PERIOD":"95.591","COUNTRY_CODE":"US","MEAN_MOTION":"15.06412099","OBJECT_ID":"2021-036L","MEAN_MOTION_DDOT":"0.0000000000000","OBJECT_NAME":"STARLINK-2547","MEAN_MOTION_DOT":"0.00018124","RCS_SIZE":"LARGE","TIME_SYSTEM":"UTC","SEMIMAJOR_AXIS":"6925.311","CENTER_NAME":"EARTH","INCLINATION":"53.0547","REV_AT_EPOCH":"11124","ELEMENT_SET_NO":"999","FILE":"3899277","TLE_LINE1":"1 48286U 21036L   23122.60929183  .00018124  00000-0  12321-2 0  9995","APOAPSIS":"548.126","EPOCH":"2023-05-02T14:37:22.814112","PERIAPSIS":"546.227","ECCENTRICITY":"0.00013710","OBJECT_TYPE":"PAYLOAD"},{"NORAD_CAT_ID":"48287","CLASSIFICATION_TYPE":"U","REF_FRAME":"TEME","MEAN_ELEMENT_THEORY":"SGP4","BSTAR":"0.00099616000000","MEAN_ANOMALY":"249.1906","DECAY_DATE":null,"RA_OF_ASC_NODE":"78.5200","LAUNCH_DATE":"2021-04-29","PERIOD":"95.590","COUNTRY_CODE":"US","ARG_OF_PERICENTER":"110.9252","GP_ID":"231123410","EPHEMERIS_TYPE":"0","TLE_LINE2":"2 48287  53.0524  78.5200 0001582 110.9252 249.1906 15.06427674111284","SITE":"AFETR","RCS_SIZE":"LARGE","MEAN_MOTION_DOT":"0.00014598","MEAN_MOTION":"15.06427674","OBJECT_ID":"2021-036M","MEAN_MOTION_DDOT":"0.0000000000000","OBJECT_NAME":"STARLINK-2566","INCLINATION":"53.0524","REV_AT_EPOCH":"11128","ELEMENT_SET_NO":"999","FILE":"3899277","TLE_LINE1":"1 48287U 21036M   23122.87100041  .00014598  00000-0  99616-3 0  9993","TIME_SYSTEM":"UTC","SEMIMAJOR_AXIS":"6925.264","CENTER_NAME":"EARTH","ECCENTRICITY":"0.00015820","OBJECT_TYPE":"PAYLOAD","APOAPSIS":"548.224","EPOCH":"2023-05-02T20:54:14.435424","PERIAPSIS":"546.033"}];
